# Made by eph2tle, compiled Jul 16 2020 18:47:12
# Run at Tue Jul 21 21:08:56 2020
#
# No updates (interplanetary,  not to be seen again)
#
#    The following TLEs (Two-Line Elements) were generated by fitting
# a numerically-integrated ephemeris,  based on the orbit given below,
# to the SDP4/SGP4 models.  Each TLE is good for the interval between
# its epoch and the epoch of the subsequent TLE (usually one day).
# The maximum deviation between the numerically integrated ephemerides
# and the TLE-based ephemeris, in kilometers,  is given for each TLE
# as the "worst residual".
#
#    This fitting is done using the 'eph2tle' code packaged with Find_Orb.
# The code has details on how the TLEs were computed :
#
#    https://github.com/Bill-Gray/find_orb/eph2tle.cpp
#
#    Be warned:  the error given is that between the numerically
# integrated ephems and the TLE model.  There will usually be at
# least some additional difference between the ephems and the actual
# motion of the satellite,  especially if the ephemerides are based
# on a short arc.  If the following orbital elements say something
# like "[based on] 10 observations 2015 Jan. 1-13",  and the TLEs
# are for 2015 May,  the extrapolation may be tenuous at best.  If
# your application requires a specific level of accuracy,  you may
# want to contact me;  I can give you some idea as to the fit of the
# underlying data (and possibly TLEs based on newer data).
#
#   You can usually find the underlying observational data,  and the
# fitted orbit,  residuals,  ephemerides,  and sometimes some comments
# about the object,  among the pages listed at
#
#    https://www.projectpluto.com/pluto/mpecs/pseudo.htm
#
#    WARNING:  for this object,  "normal" TLEs cannot be fitted.  (This
# usually means an object with an hyperbolic or nearly-parabolic orbit.)
# For this and similar cases,   an alternative model is used,  in which
# most of the traditional TLE data is replaced by six signed 8-digit hex
# numbers.  These six numbers are a state vector,  numerically integrated
# using a simplified force model.  This is necessary for objects at L2 or
# L1,  and sometimes for objects in high orbits where the SDP4/SGP4 model
# fails.  I'll be posting source code for this.  But be aware:  it's my
# own extension,  doesn't work with other code,  and is therefore used
# only when necessary.
#
#    Also,  if you use a TLE outside the "correct" time range (between
# its MJD and that of the next TLE),  all bets are off.  I've carefully
# computed and minimized the worst error over the "correct" time frame,
# but the ephemeris may (or may not) diverge wildly outside of it.
#
# Ephem range: 59050.000000 59070.000000 1.000000
# Created Tue Jul 21 21:08:20 2020
# Ephemeris start: 20 Jul 2020  0:00:00
# Ephemeris end:    9 Aug 2020  0:00:00
# Times are all TDT
# Positions/velocities are in equatorial J2000
# Orbital elements:  2020-047A = NORAD 45918 = EMM (Hope) spacecraft
#    Perigee 2020 Jul 19.9535654 +/- 2.93e-6 TT = 22:53:08.05 (JD 2459050.4535654)
# Epoch 2020 Jul 22.0 TT = JDT 2459052.5                        Find_Orb
# q  6306.9770946 +/- 0.387           (J2000 equator)
# H   29.4  G 0.15                    Peri.  283.9435433 +/- 0.0012
#                                     Node   308.2360945 +/- 0.0006
# e   1.210238691 +/- 2.52e-5         Incl.   30.0647687 +/- 0.00015
# 109 of 136 observations 2020 July 20-22 (47.1 hr); mean residual 0".402
# LAUNCH at  19 Jul 2020 22:54:18.60 lat -26.23889 lon W30.83173
#
# 1 NoradU COSPAR   Epoch.epoch     dn/dt/2  d2n/dt2/6 BSTAR    T El# C
# 2 NoradU Inclina RAAscNode Eccent  ArgPeri MeanAno  MeanMotion Rev# C

# Worst residual: 2.85 km
# MJD 59050.000000 (2020 Jul 20  0:00)
2020-047A = NORAD 45918 = EMM (Hope) spacecraft
1 45918U 20047A   20201.99919926 +000FQ8O0 -0004QS69 +0005D30WH  9342
2 45918                          +000XO45W +0004QGMO +000H0EPN     02

# Worst residual: 5.48 km
# MJD 59051.000000 (2020 Jul 21  0:00)
2020-047A = NORAD 45918 = EMM (Hope) spacecraft
1 45918U 20047A   20202.99919926 +005O7UG0 +0017Z33S +0030U1VSH  9347
2 45918                          +000JTMHD +0005ERA7 +000AZIAR     01

# Worst residual: 4.26 km
# MJD 59052.000000 (2020 Jul 22  0:00)
2020-047A = NORAD 45918 = EMM (Hope) spacecraft
1 45918U 20047A   20203.99919926 +00ACAOF0 +002HXKZY +005LZQJUH  9345
2 45918                          +000J7I69 +000594TM +000AN5EN     04

# Worst residual: 0.76 km
# MJD 59053.000000 (2020 Jul 23  0:00)
2020-047A = NORAD 45918 = EMM (Hope) spacecraft
1 45918U 20047A   20204.99919926 +00EX575X +003QZ6F1 +00859WAMH  9348
2 45918                          +000IZ8XI +00056GV0 +000AI2HQ     00

# Worst residual: 0.70 km
# MJD 59054.000000 (2020 Jul 24  0:00)
2020-047A = NORAD 45918 = EMM (Hope) spacecraft
1 45918U 20047A   20205.99919926 +00JGJXAO +004ZICMW +00ANMDU8H  9342
2 45918                          +000IUVLM +00054Q8I +000AF0N0     06

# Worst residual: 0.82 km
# MJD 59055.000000 (2020 Jul 25  0:00)
2020-047A = NORAD 45918 = EMM (Hope) spacecraft
1 45918U 20047A   20206.99919926 +00NZ4OS9 +0067OHK9 +00D5CIXQH  9341
2 45918                          +000IS3UM +00053EH0 +000ACSDL     00

# Worst residual: 1.00 km
# MJD 59056.000000 (2020 Jul 26  0:00)
2020-047A = NORAD 45918 = EMM (Hope) spacecraft
1 45918U 20047A   20207.99919926 +00SH57K5 +007FK6FT +00FMLA5JH  9347
2 45918                          +000IQ3R4 +00052AC4 +000AAY3S     00

# Worst residual: 1.20 km
# MJD 59057.000000 (2020 Jul 27  0:00)
2020-047A = NORAD 45918 = EMM (Hope) spacecraft
1 45918U 20047A   20208.99919926 +00WYQ9WR +008N6R12 +00I3F20DH  9344
2 45918                          +000IOHFW +000519XK +000A9AO7     00

# Worst residual: 1.39 km
# MJD 59058.000000 (2020 Jul 28  0:00)
2020-047A = NORAD 45918 = EMM (Hope) spacecraft
1 45918U 20047A   20209.99919926 +011FY7U8 +009UKR9F +00KJUZ6FH  9345
2 45918                          +000IN1HV +00050AIP +000A7Q5G     07

# Worst residual: 1.53 km
# MJD 59059.000000 (2020 Jul 29  0:00)
2020-047A = NORAD 45918 = EMM (Hope) spacecraft
1 45918U 20047A   20210.99919926 +015WU0AD +00B1Q5KE +00MZXFAXH  9348
2 45918                          +000ILNNK +0004Z9SN +000A6618     03

# Worst residual: 1.62 km
# MJD 59060.000000 (2020 Jul 30  0:00)
2020-047A = NORAD 45918 = EMM (Hope) spacecraft
1 45918U 20047A   20211.99919926 +01ADDTTT +00C8MDE1 +00PFM9OJH  9346
2 45918                          +000IK9GX +0004Y5ND +000A4KI8     09

# Worst residual: 1.67 km
# MJD 59061.000000 (2020 Jul 31  0:00)
2020-047A = NORAD 45918 = EMM (Hope) spacecraft
1 45918U 20047A   20212.99919926 +01ETLFEL +00DF8CIG +00RUWZPPH  9347
2 45918                          +000IITP5 +0004WW3L +000A2W4R     07

# Worst residual: 1.70 km
# MJD 59062.000000 (2020 Aug  1  0:00)
2020-047A = NORAD 45918 = EMM (Hope) spacecraft
1 45918U 20047A   20213.99919926 +01J9GD5T +00ELIK7W +00U9SRHWH  9340
2 45918                          +000IHBYW +0004VFBD +000A13PR     07

# Worst residual: 1.74 km
# MJD 59063.000000 (2020 Aug  2  0:00)
2020-047A = NORAD 45918 = EMM (Hope) spacecraft
1 45918U 20047A   20214.99919926 +01NOY70Z +00FRF2R3 +00WO8HLZH  9341
2 45918                          +000IFSKQ +0004TPNM +0009Z68T     06

# Worst residual: 1.84 km
# MJD 59064.000000 (2020 Aug  3  0:00)
2020-047A = NORAD 45918 = EMM (Hope) spacecraft
1 45918U 20047A   20215.99919926 +01S42LSB +00GWVL7Q +00Z26ULLH  9343
2 45918                          +000IE8BM +0004RPQ6 +0009X2VC     08

# Worst residual: 2.02 km
# MJD 59065.000000 (2020 Aug  4  0:00)
2020-047A = NORAD 45918 = EMM (Hope) spacecraft
1 45918U 20047A   20216.99919926 +01WITIV8 +00I1THVD +011FMCDWH  9344
2 45918                          +000ICODU +0004PEF4 +0009USWO     06

# Worst residual: 2.26 km
# MJD 59066.000000 (2020 Aug  5  0:00)
2020-047A = NORAD 45918 = EMM (Hope) spacecraft
1 45918U 20047A   20217.99919926 +020X76ZB +00J65YPU +013SHBNHH  9343
2 45918                          +000IB66E +0004MQXF +0009SBTV     04

# Worst residual: 2.52 km
# MJD 59067.000000 (2020 Aug  6  0:00)
2020-047A = NORAD 45918 = EMM (Hope) spacecraft
1 45918U 20047A   20218.99919926 +025B87PT +00K9U028 +0164Q17EH  9344
2 45918                          +000I9R90 +0004JQQM +0009PN9H     09

# Worst residual: 2.76 km
# MJD 59068.000000 (2020 Aug  7  0:00)
2020-047A = NORAD 45918 = EMM (Hope) spacecraft
1 45918U 20047A   20219.99919926 +029OXK9K +00LCQIX0 +018GAN7YH  9341
2 45918                          +000I8H6V +0004GDLH +0009MQYW     06

# Worst residual: 2.93 km
# MJD 59069.000000 (2020 Aug  8  0:00)
2020-047A = NORAD 45918 = EMM (Hope) spacecraft
1 45918U 20047A   20220.99919926 +02E2CLI8 +00MESF1V +01AR5ACBH  9346
2 45918                          +000I7DKL +0004CNGJ +0009JMTT     09
Avg worst resid: 2.05 km
Worst residual in entire run: 5.48 km on MJD 59051.0
       1     3     10    30    100   300   1K    3K    10K   km
     3    15     2     0     0     0     0     0     0     0
